{"type": "FeatureCollection", "features": [ {"type": "Feature", "properties": {"norad_id": 34823, "name": "COSMOS 2251 DEB", "group": "cosmos-2251-debris", "lat": 42.167375207469796, "lon": 105.05583090135472, "alt_km": 773.2712995477568, "timestamp": "2025-12-19T04:59:48.702064+00:00", "meta": {"OBJECT_NAME": "COSMOS 2251 DEB", "OBJECT_ID": "1993-036ABN", "EPOCH": "2025-12-17T16:29:01.822560", "MEAN_MOTION": 14.54962902, "ECCENTRICITY": 0.01543529, "INCLINATION": 74.0424, "RA_OF_ASC_NODE": 92.9148, "ARG_OF_PERICENTER": 176.4751, "MEAN_ANOMALY": 183.7542, "EPHEMERIS_TYPE": 0, "CLASSIFICATION_TYPE": "U", "NORAD_CAT_ID": 34823, "ELEMENT_SET_NO": 999, "REV_AT_EPOCH": 88453, "BSTAR": 0.00051395054, "MEAN_MOTION_DOT": 2.564e-05, "MEAN_MOTION_DDOT": 0}, "tle": {"line1": "1 34823U 93036ABN 25351.68682665  .00002564  00000+0  51395-3 0  9996", "line2": "2 34823  74.0424  92.9148 0154352 176.4751 183.7542 14.54962902884537"}}, "geometry": {"type": "Point", "coordinates": [105.05583090135472, 42.167375207469796]}}, {"type": "Feature", "properties": {"norad_id": 34845, "name": "COSMOS 2251 DEB", "group": "cosmos-2251-debris", "lat": 16.83004502166422, "lon": -48.6935500147191, "alt_km": 750.4858080601034, "timestamp": "2025-12-19T04:59:48.702092+00:00", "meta": {"OBJECT_NAME": "COSMOS 2251 DEB", "OBJECT_ID": "1993-036ABP", "EPOCH": "2025-12-18T03:20:16.618272", "MEAN_MOTION": 14.45869846, "ECCENTRICITY": 0.00226187, "INCLINATION": 74.0247, "RA_OF_ASC_NODE": 138.2724, "ARG_OF_PERICENTER": 298.416, "MEAN_ANOMALY": 61.4719, "EPHEMERIS_TYPE": 0, "CLASSIFICATION_TYPE": "U", "NORAD_CAT_ID": 34845, "ELEMENT_SET_NO": 999, "REV_AT_EPOCH": 87544, "BSTAR": 0.00023548418, "MEAN_MOTION_DOT": 8.12e-06, "MEAN_MOTION_DDOT": 0}, "tle": {"line1": "1 34845U 93036ABP 25352.13908123  .00000812  00000+0  23548-3 0  9994", "line2": "2 34845  74.0247 138.2724 0022618 298.4160  61.4719 14.45869846875447"}}, "geometry": {"type": "Point", "coordinates": [-48.6935500147191, 16.83004502166422]}}, {"type": "Feature", "properties": {"norad_id": 34846, "name": "COSMOS 2251 DEB", "group": "cosmos-2251-debris", "lat": 44.032919703002335, "lon": 53.60687827448427, "alt_km": 749.1986239312055, "timestamp": "2025-12-19T04:59:48.702103+00:00", "meta": {"OBJECT_NAME": "COSMOS 2251 DEB", "OBJECT_ID": "1993-036ABQ", "EPOCH": "2025-12-18T18:25:36.290496", "MEAN_MOTION": 14.47248288, "ECCENTRICITY": 0.0026188, "INCLINATION": 74.0308, "RA_OF_ASC_NODE": 250.5021, "ARG_OF_PERICENTER": 316.1435, "MEAN_ANOMALY": 43.7644, "EPHEMERIS_TYPE": 0, "CLASSIFICATION_TYPE": "U", "NORAD_CAT_ID": 34846, "ELEMENT_SET_NO": 999, "REV_AT_EPOCH": 87491, "BSTAR": 0.00055325208, "MEAN_MOTION_DOT": 2.004e-05, "MEAN_MOTION_DDOT": 0}, "tle": {"line1": "1 34846U 93036ABQ 25352.76778114  .00002004  00000+0  55325-3 0  9992", "line2": "2 34846  74.0308 250.5021 0026188 316.1435  43.7644 14.47248288874917"}}, "geometry": {"type": "Point", "coordinates": [53.60687827448427, 44.032919703002335]}}, {"type": "Feature", "properties": {"norad_id": 34852, "name": "COSMOS 2251 DEB", "group": "cosmos-2251-debris", "lat": -36.71650285527149, "lon": -121.25356195969579, "alt_km": 764.322122855092, "timestamp": "2025-12-19T04:59:48.702114+00:00", "meta": {"OBJECT_NAME": "COSMOS 2251 DEB", "OBJECT_ID": "1993-036ABW", "EPOCH": "2025-12-18T10:47:45.598848", "MEAN_MOTION": 14.37009451, "ECCENTRICITY": 0.00164441, "INCLINATION": 74.0327, "RA_OF_ASC_NODE": 252.4705, "ARG_OF_PERICENTER": 354.4179, "MEAN_ANOMALY": 5.6788, "EPHEMERIS_TYPE": 0, "CLASSIFICATION_TYPE": "U", "NORAD_CAT_ID": 34852, "ELEMENT_SET_NO": 999, "REV_AT_EPOCH": 87616, "BSTAR": 9.6329972e-05, "MEAN_MOTION_DOT": 2.6e-06, "MEAN_MOTION_DDOT": 0}, "tle": {"line1": "1 34852U 93036ABW 25352.44983332  .00000260  00000+0  96330-4 0  9998", "line2": "2 34852  74.0327 252.4705 0016444 354.4179   5.6788 14.37009451876160"}}, "geometry": {"type": "Point", "coordinates": [-121.25356195969579, -36.71650285527149]}}, {"type": "Feature", "properties": {"norad_id": 34854, "name": "COSMOS 2251 DEB", "group": "cosmos-2251-debris", "lat": 62.949889501672665, "lon": -179.97874545360378, "alt_km": 679.2132732564314, "timestamp": "2025-12-19T04:59:48.702125+00:00", "meta": {"OBJECT_NAME": "COSMOS 2251 DEB", "OBJECT_ID": "1993-036ABY", "EPOCH": "2025-12-17T03:54:33.341760", "MEAN_MOTION": 14.76668527, "ECCENTRICITY": 0.00660904, "INCLINATION": 74.0279, "RA_OF_ASC_NODE": 149.9114, "ARG_OF_PERICENTER": 260.7011, "MEAN_ANOMALY": 98.6686, "EPHEMERIS_TYPE": 0, "CLASSIFICATION_TYPE": "U", "NORAD_CAT_ID": 34854, "ELEMENT_SET_NO": 999, "REV_AT_EPOCH": 71947, "BSTAR": 0.00058059968, "MEAN_MOTION_DOT": 4.175e-05, "MEAN_MOTION_DDOT": 0}, "tle": {"line1": "1 34854U 93036ABY 25351.16288590  .00004175  00000+0  58060-3 0  9998", "line2": "2 34854  74.0279 149.9114 0066090 260.7011  98.6686 14.76668527719475"}}, "geometry": {"type": "Point", "coordinates": [-179.97874545360378, 62.949889501672665]}}, {"type": "Feature", "properties": {"norad_id": 34856, "name": "COSMOS 2251 DEB", "group": "cosmos-2251-debris", "lat": 64.93250005942016, "lon": -146.30090977777343, "alt_km": 543.9797324200417, "timestamp": "2025-12-19T04:59:48.702135+00:00", "meta": {"OBJECT_NAME": "COSMOS 2251 DEB", "OBJECT_ID": "1993-036ACA", "EPOCH": "2025-12-18T06:28:36.328224", "MEAN_MOTION": 15.06351837, "ECCENTRICITY": 0.00322008, "INCLINATION": 73.998, "RA_OF_ASC_NODE": 73.4749, "ARG_OF_PERICENTER": 210.7387, "MEAN_ANOMALY": 212.757, "EPHEMERIS_TYPE": 0, "CLASSIFICATION_TYPE": "U", "NORAD_CAT_ID": 34856, "ELEMENT_SET_NO": 999, "REV_AT_EPOCH": 89195, "BSTAR": 0.0015696313, "MEAN_MOTION_DOT": 0.00023408, "MEAN_MOTION_DDOT": 0}, "tle": {"line1": "1 34856U 93036ACA 25352.26986491  .00023408  00000+0  15696-2 0  9994", "line2": "2 34856  73.9980  73.4749 0032200 210.7387 212.7570 15.06351837891958"}}, "geometry": {"type": "Point", "coordinates": [-146.30090977777343, 64.93250005942016]}}, {"type": "Feature", "properties": {"norad_id": 34857, "name": "COSMOS 2251 DEB", "group": "cosmos-2251-debris", "lat": 72.03613575595205, "lon": -147.6415378743944, "alt_km": 711.856842962291, "timestamp": "2025-12-19T04:59:48.702145+00:00", "meta": {"OBJECT_NAME": "COSMOS 2251 DEB", "OBJECT_ID": "1993-036ACB", "EPOCH": "2025-12-17T13:07:27.079680", "MEAN_MOTION": 14.58941212, "ECCENTRICITY": 0.00656795, "INCLINATION": 74.0163, "RA_OF_ASC_NODE": 97.66, "ARG_OF_PERICENTER": 221.2744, "MEAN_ANOMALY": 155.4118, "EPHEMERIS_TYPE": 0, "CLASSIFICATION_TYPE": "U", "NORAD_CAT_ID": 34857, "ELEMENT_SET_NO": 999, "REV_AT_EPOCH": 87971, "BSTAR": 0.00084400189, "MEAN_MOTION_DOT": 4.049e-05, "MEAN_MOTION_DDOT": 0}, "tle": {"line1": "1 34857U 93036ACB 25351.54684120  .00004049  00000+0  84400-3 0  9999", "line2": "2 34857  74.0163  97.6600 0065679 221.2744 155.4118 14.58941212879717"}}, "geometry": {"type": "Point", "coordinates": [-147.6415378743944, 72.03613575595205]}}, {"type": "Feature", "properties": {"norad_id": 34859, "name": "COSMOS 2251 DEB", "group": "cosmos-2251-debris", "lat": -69.89212596328949, "lon": -85.28652164070903, "alt_km": 525.6114696724162, "timestamp": "2025-12-19T04:59:48.702155+00:00", "meta": {"OBJECT_NAME": "COSMOS 2251 DEB", "OBJECT_ID": "1993-036ACD", "EPOCH": "2025-12-18T21:32:00.485376", "MEAN_MOTION": 15.15701448, "ECCENTRICITY": 0.00017381, "INCLINATION": 74.0274, "RA_OF_ASC_NODE": 326.8387, "ARG_OF_PERICENTER": 11.7586, "MEAN_ANOMALY": 14.5218, "EPHEMERIS_TYPE": 0, "CLASSIFICATION_TYPE": "U", "NORAD_CAT_ID": 34859, "ELEMENT_SET_NO": 999, "REV_AT_EPOCH": 88452, "BSTAR": 0.0034830236, "MEAN_MOTION_DOT": 0.00066942, "MEAN_MOTION_DDOT": 0}, "tle": {"line1": "1 34859U 93036ACD 25352.89722784  .00066942  00000+0  34830-2 0  9990", "line2": "2 34859  74.0274 326.8387 0001738  11.7586  14.5218 15.15701448884523"}}, "geometry": {"type": "Point", "coordinates": [-85.28652164070903, -69.89212596328949]}}, {"type": "Feature", "properties": {"norad_id": 34861, "name": "COSMOS 2251 DEB", "group": "cosmos-2251-debris", "lat": -70.16585576580216, "lon": -89.75678629259802, "alt_km": 568.0922070958813, "timestamp": "2025-12-19T04:59:48.702165+00:00", "meta": {"OBJECT_NAME": "COSMOS 2251 DEB", "OBJECT_ID": "1993-036ACF", "EPOCH": "2025-12-18T14:08:43.600128", "MEAN_MOTION": 15.02920509, "ECCENTRICITY": 0.00076164, "INCLINATION": 74.0194, "RA_OF_ASC_NODE": 38.8984, "ARG_OF_PERICENTER": 29.0921, "MEAN_ANOMALY": 122.3778, "EPHEMERIS_TYPE": 0, "CLASSIFICATION_TYPE": "U", "NORAD_CAT_ID": 34861, "ELEMENT_SET_NO": 999, "REV_AT_EPOCH": 88180, "BSTAR": 0.0018473696, "MEAN_MOTION_DOT": 0.00024875, "MEAN_MOTION_DDOT": 0}, "tle": {"line1": "1 34861U 93036ACF 25352.58939352  .00024875  00000+0  18474-2 0  9995", "line2": "2 34861  74.0194  38.8984 0007616  29.0921 122.3778 15.02920509881800"}}, "geometry": {"type": "Point", "coordinates": [-89.75678629259802, -70.16585576580216]}}, {"type": "Feature", "properties": {"norad_id": 34874, "name": "COSMOS 2251 DEB", "group": "cosmos-2251-debris", "lat": 68.7342053677195, "lon": -165.44754541066163, "alt_km": 729.3321688532897, "timestamp": "2025-12-19T04:59:48.702179+00:00", "meta": {"OBJECT_NAME": "COSMOS 2251 DEB", "OBJECT_ID": "1993-036ACM", "EPOCH": "2025-12-18T15:52:03.186336", "MEAN_MOTION": 14.36336559, "ECCENTRICITY": 0.00506617, "INCLINATION": 74.0397, "RA_OF_ASC_NODE": 62.8903, "ARG_OF_PERICENTER": 86.2977, "MEAN_ANOMALY": 70.1378, "EPHEMERIS_TYPE": 0, "CLASSIFICATION_TYPE": "U", "NORAD_CAT_ID": 34874, "ELEMENT_SET_NO": 999, "REV_AT_EPOCH": 87129, "BSTAR": 0.00057276205, "MEAN_MOTION_DOT": 1.675e-05, "MEAN_MOTION_DDOT": 0}, "tle": {"line1": "1 34874U 93036ACM 25352.66114799  .00001675  00000+0  57276-3 0  9995", "line2": "2 34874  74.0397  62.8903 0050661  86.2977  70.1378 14.36336559871291"}}, "geometry": {"type": "Point", "coordinates": [-165.44754541066163, 68.7342053677195]}}]}